{
    "links": {
        "self": "http://www.neowsapp.com/rest/v1/neo/3794965?api_key=iIulBulltgU6a56xZRHN4H3l9WmuAYTsLGpBGhQ2"
    },
    "id": "3794965",
    "neo_reference_id": "3794965",
    "name": "(2017 YO1)",
    "designation": "2017 YO1",
    "nasa_jpl_url": "http://ssd.jpl.nasa.gov/sbdb.cgi?sstr=3794965",
    "absolute_magnitude_h": 23.2,
    "estimated_diameter": {
        "kilometers": {
            "estimated_diameter_min": 0.0608912622,
            "estimated_diameter_max": 0.1361570015
        },
        "meters": {
            "estimated_diameter_min": 60.8912622106,
            "estimated_diameter_max": 136.1570015386
        },
        "miles": {
            "estimated_diameter_min": 0.0378360645,
            "estimated_diameter_max": 0.0846040122
        },
        "feet": {
            "estimated_diameter_min": 199.7744887109,
            "estimated_diameter_max": 446.7093369279
        }
    },
    "is_potentially_hazardous_asteroid": false,
    "close_approach_data": [
        {
            "close_approach_date": "2017-12-08",
            "close_approach_date_full": "2017-Dec-08 11:33",
            "epoch_date_close_approach": 1512732780000,
            "relative_velocity": {
                "kilometers_per_second": "13.0965473264",
                "kilometers_per_hour": "47147.5703748654",
                "miles_per_hour": "29295.6667143157"
            },
            "miss_distance": {
                "astronomical": "0.0812369992",
                "lunar": "31.6011926888",
                "kilometers": "12152882.045511704",
                "miles": "7551450.7376573552"
            },
            "orbiting_body": "Earth"
        }
    ],
    "orbital_data": {
        "orbit_id": "2",
        "orbit_determination_date": "2017-12-28 06:24:32",
        "first_observation_date": "2017-12-21",
        "last_observation_date": "2017-12-28",
        "data_arc_in_days": 7,
        "observations_used": 28,
        "orbit_uncertainty": "9",
        "minimum_orbit_intersection": ".0271319",
        "jupiter_tisserand_invariant": "3.692",
        "epoch_osculation": "2458110.5",
        "eccentricity": ".5543041533993002",
        "semi_major_axis": "1.942101037746632",
        "inclination": "5.129684926604785",
        "ascending_node_longitude": "131.1281960152836",
        "orbital_period": "988.5671102751816",
        "perihelion_distance": ".865586366202583",
        "perihelion_argument": "251.5945511518962",
        "aphelion_distance": "3.018615709290681",
        "perihelion_time": "2458058.367556047953",
        "mean_anomaly": "18.98473014898571",
        "mean_motion": ".3641634404565502",
        "equinox": "J2000",
        "orbit_class": {
            "orbit_class_type": "APO",
            "orbit_class_description": "Near-Earth asteroid orbits which cross the Earth’s orbit similar to that of 1862 Apollo",
            "orbit_class_range": "a (semi-major axis) > 1.0 AU; q (perihelion) < 1.017 AU"
        }
    },
    "is_sentry_object": false
}